IRIDIUM 119             
1 42959U 17061E   25036.51438187 -.00000067  00000+0 -30895-4 0  9990
2 42959  86.3947 232.7521 0001971  98.5580 261.5839 14.34217167383625
IRIDIUM 107             
1 42960U 17061F   25036.53342397  .00000214  00000+0  69189-4 0  9991
2 42960  86.3941 232.7624 0002429  98.7142 261.4329 14.34220552383636
IRIDIUM 132             
1 42961U 17061G   25036.53974995  .00000195  00000+0  62634-4 0  9993
2 42961  86.3943 232.7427 0002166  90.6942 269.4502 14.34217541383632
IRIDIUM 136             
1 42962U 17061H   25036.50169963  .00000115  00000+0  33885-4 0  9990
2 42962  86.3941 232.7629 0002240 101.2551 258.8897 14.34220096383642
IRIDIUM 139             
1 42963U 17061J   25036.50804747  .00000215  00000+0  69546-4 0  9991
2 42963  86.3944 232.8142 0002323  94.7103 265.4359 14.34216702383655
IRIDIUM 125             
1 42964U 17061K   25036.49536054  .00000159  00000+0  49579-4 0  9994
2 42964  86.3945 232.8714 0002047 108.4314 251.7105 14.34221084383669
IRIDIUM 135             
1 43070U 17083A   25036.60901771  .00000124  00000+0  37375-4 0  9995
2 43070  86.4026 169.5712 0001944  90.2484 269.8935 14.34216054372978
IRIDIUM 138             
1 43071U 17083B   25036.63438546  .00000156  00000+0  48605-4 0  9997
2 43071  86.4017 169.2491 0001649 112.7105 247.4265 14.34219792372961
